[{"OBJECT_NAME":"ION SCV-011","OBJECT_ID":"2023-084AB","EPOCH":"2026-03-09T22:35:16.566144","MEAN_MOTION":15.27752464,"ECCENTRICITY":0.00079323,"INCLINATION":98.1356,"RA_OF_ASC_NODE":247.1056,"ARG_OF_PERICENTER":30.3898,"MEAN_ANOMALY":329.7798,"EPHEMERIS_TYPE":0,"CLASSIFICATION_TYPE":"U","NORAD_CAT_ID":56957,"ELEMENT_SET_NO":999,"REV_AT_EPOCH":15065,"BSTAR":0.0002590454,"MEAN_MOTION_DOT":6.943e-5,"MEAN_MOTION_DDOT":0},{"OBJECT_NAME":"STARLINK-31712","OBJECT_ID":"2024-071H","EPOCH":"2026-03-09T03:58:58.275264","MEAN_MOTION":15.27576127,"ECCENTRICITY":8.367e-5,"INCLINATION":42.9962,"RA_OF_ASC_NODE":354.1129,"ARG_OF_PERICENTER":63.8061,"MEAN_ANOMALY":296.2877,"EPHEMERIS_TYPE":0,"CLASSIFICATION_TYPE":"U","NORAD_CAT_ID":59491,"ELEMENT_SET_NO":999,"REV_AT_EPOCH":10799,"BSTAR":-0.00011946925,"MEAN_MOTION_DOT":-3.547e-5,"MEAN_MOTION_DDOT":0}]
